{"type": "FeatureCollection", "features": [{"type": "Feature", "properties": {"norad_id": 24876, "name": "GPS BIIR-2  (PRN 13)", "group": "gps-ops", "lat": -19.782304722528234, "lon": 91.86653134979072, "alt_km": 20142.63548401899, "timestamp": "2025-12-10T04:57:29.876666+00:00", "meta": {"OBJECT_NAME": "GPS BIIR-2  (PRN 13)", "OBJECT_ID": "1997-035A", "EPOCH": "2025-12-09T17:47:19.153824", "MEAN_MOTION": 2.00563565, "ECCENTRICITY": 0.0096748, "INCLINATION": 55.8939, "RA_OF_ASC_NODE": 105.9862, "ARG_OF_PERICENTER": 57.0132, "MEAN_ANOMALY": 303.8899, "EPHEMERIS_TYPE": 0, "CLASSIFICATION_TYPE": "U", "NORAD_CAT_ID": 24876, "ELEMENT_SET_NO": 999, "REV_AT_EPOCH": 20815, "BSTAR": 0, "MEAN_MOTION_DOT": 2.2e-07, "MEAN_MOTION_DDOT": 0}, "tle": {"line1": "1 24876U 97035A   25343.74119391  .00000022  00000+0  00000+0 0  9995", "line2": "2 24876  55.8939 105.9862 0096748  57.0132 303.8899  2.00563565208159"}}, "geometry": {"type": "Point", "coordinates": [91.86653134979072, -19.782304722528234]}}, {"type": "Feature", "properties": {"norad_id": 26360, "name": "GPS BIIR-4  (PRN 20)", "group": "gps-ops", "lat": 49.81046129369123, "lon": 82.8101628144417, "alt_km": 20278.527380891108, "timestamp": "2025-12-10T04:57:29.876693+00:00", "meta": {"OBJECT_NAME": "GPS BIIR-4  (PRN 20)", "OBJECT_ID": "2000-025A", "EPOCH": "2025-12-09T20:20:35.473056", "MEAN_MOTION": 2.00567878, "ECCENTRICITY": 0.0038854, "INCLINATION": 55.0435, "RA_OF_ASC_NODE": 26.9548, "ARG_OF_PERICENTER": 241.7187, "MEAN_ANOMALY": 287.9405, "EPHEMERIS_TYPE": 0, "CLASSIFICATION_TYPE": "U", "NORAD_CAT_ID": 26360, "ELEMENT_SET_NO": 999, "REV_AT_EPOCH": 18747, "BSTAR": 0, "MEAN_MOTION_DOT": -9.5e-07, "MEAN_MOTION_DDOT": 0}, "tle": {"line1": "1 26360U 00025A   25343.84763279 -.00000095  00000+0  00000+0 0  9990", "line2": "2 26360  55.0435  26.9548 0038854 241.7187 287.9405  2.00567878187478"}}, "geometry": {"type": "Point", "coordinates": [82.8101628144417, 49.81046129369123]}}, {"type": "Feature", "properties": {"norad_id": 26407, "name": "GPS BIIR-5  (PRN 22)", "group": "gps-ops", "lat": -54.82106362889233, "lon": 128.49798339932065, "alt_km": 19909.579486877512, "timestamp": "2025-12-10T04:57:29.876709+00:00", "meta": {"OBJECT_NAME": "GPS BIIR-5  (PRN 22)", "OBJECT_ID": "2000-040A", "EPOCH": "2025-12-09T20:17:06.583776", "MEAN_MOTION": 2.00567874, "ECCENTRICITY": 0.0126172, "INCLINATION": 54.8914, "RA_OF_ASC_NODE": 222.6841, "ARG_OF_PERICENTER": 301.7549, "MEAN_ANOMALY": 65.7518, "EPHEMERIS_TYPE": 0, "CLASSIFICATION_TYPE": "U", "NORAD_CAT_ID": 26407, "ELEMENT_SET_NO": 999, "REV_AT_EPOCH": 18615, "BSTAR": 0, "MEAN_MOTION_DOT": 2e-08, "MEAN_MOTION_DDOT": 0}, "tle": {"line1": "1 26407U 00040A   25343.84521509  .00000002  00000+0  00000+0 0  9994", "line2": "2 26407  54.8914 222.6841 0126172 301.7549  65.7518  2.00567874186157"}}, "geometry": {"type": "Point", "coordinates": [128.49798339932065, -54.82106362889233]}}, {"type": "Feature", "properties": {"norad_id": 27663, "name": "GPS BIIR-8  (PRN 16)", "group": "gps-ops", "lat": 34.65391859474663, "lon": -108.4764349638961, "alt_km": 19789.10740670455, "timestamp": "2025-12-10T04:57:29.876723+00:00", "meta": {"OBJECT_NAME": "GPS BIIR-8  (PRN 16)", "OBJECT_ID": "2003-005A", "EPOCH": "2025-12-09T15:52:30.360000", "MEAN_MOTION": 2.00571029, "ECCENTRICITY": 0.0147333, "INCLINATION": 54.924, "RA_OF_ASC_NODE": 222.5008, "ARG_OF_PERICENTER": 51.758, "MEAN_ANOMALY": 318.9168, "EPHEMERIS_TYPE": 0, "CLASSIFICATION_TYPE": "U", "NORAD_CAT_ID": 27663, "ELEMENT_SET_NO": 999, "REV_AT_EPOCH": 16751, "BSTAR": 0, "MEAN_MOTION_DOT": 3e-08, "MEAN_MOTION_DDOT": 0}, "tle": {"line1": "1 27663U 03005A   25343.66146250  .00000003  00000+0  00000+0 0  9990", "line2": "2 27663  54.9240 222.5008 0147333  51.7580 318.9168  2.00571029167518"}}, "geometry": {"type": "Point", "coordinates": [-108.4764349638961, 34.65391859474663]}}, {"type": "Feature", "properties": {"norad_id": 28190, "name": "GPS BIIR-11 (PRN 19)", "group": "gps-ops", "lat": -19.38871949728332, "lon": 117.57084402115666, "alt_km": 19952.05678946046, "timestamp": "2025-12-10T04:57:29.876736+00:00", "meta": {"OBJECT_NAME": "GPS BIIR-11 (PRN 19)", "OBJECT_ID": "2004-009A", "EPOCH": "2025-12-09T02:41:41.936352", "MEAN_MOTION": 2.00560834, "ECCENTRICITY": 0.01083049, "INCLINATION": 54.989, "RA_OF_ASC_NODE": 283.3651, "ARG_OF_PERICENTER": 167.5856, "MEAN_ANOMALY": 325.415, "EPHEMERIS_TYPE": 0, "CLASSIFICATION_TYPE": "U", "NORAD_CAT_ID": 28190, "ELEMENT_SET_NO": 999, "REV_AT_EPOCH": 15913, "BSTAR": 0, "MEAN_MOTION_DOT": -5.3e-07, "MEAN_MOTION_DDOT": 0}, "tle": {"line1": "1 28190U 04009A   25343.11229093 -.00000053  00000+0  00000+0 0  9994", "line2": "2 28190  54.9890 283.3651 0108304 167.5856 325.4150  2.00560834159136"}}, "geometry": {"type": "Point", "coordinates": [117.57084402115666, -19.38871949728332]}}, {"type": "Feature", "properties": {"norad_id": 28474, "name": "GPS BIIR-13 (PRN 02)", "group": "gps-ops", "lat": -54.38811213920248, "lon": -131.73930434881078, "alt_km": 19875.44932500365, "timestamp": "2025-12-10T04:57:29.876748+00:00", "meta": {"OBJECT_NAME": "GPS BIIR-13 (PRN 02)", "OBJECT_ID": "2004-045A", "EPOCH": "2025-12-09T12:22:18.068160", "MEAN_MOTION": 2.00569281, "ECCENTRICITY": 0.01706994, "INCLINATION": 55.2423, "RA_OF_ASC_NODE": 332.5354, "ARG_OF_PERICENTER": 309.1094, "MEAN_ANOMALY": 175.0293, "EPHEMERIS_TYPE": 0, "CLASSIFICATION_TYPE": "U", "NORAD_CAT_ID": 28474, "ELEMENT_SET_NO": 999, "REV_AT_EPOCH": 15462, "BSTAR": 0, "MEAN_MOTION_DOT": -8.4e-07, "MEAN_MOTION_DDOT": 0}, "tle": {"line1": "1 28474U 04045A   25343.51548690 -.00000084  00000+0  00000+0 0  9994", "line2": "2 28474  55.2423 332.5354 0170699 309.1094 175.0293  2.00569281154629"}}, "geometry": {"type": "Point", "coordinates": [-131.73930434881078, -54.38811213920248]}}, {"type": "Feature", "properties": {"norad_id": 28874, "name": "GPS BIIRM-1 (PRN 17)", "group": "gps-ops", "lat": -32.2065554060974, "lon": 126.9077692971981, "alt_km": 20078.198373395677, "timestamp": "2025-12-10T04:57:29.876760+00:00", "meta": {"OBJECT_NAME": "GPS BIIRM-1 (PRN 17)", "OBJECT_ID": "2005-038A", "EPOCH": "2025-12-09T01:52:55.801632", "MEAN_MOTION": 2.0057855, "ECCENTRICITY": 0.01317498, "INCLINATION": 55.0352, "RA_OF_ASC_NODE": 280.8483, "ARG_OF_PERICENTER": 293.4065, "MEAN_ANOMALY": 193.8993, "EPHEMERIS_TYPE": 0, "CLASSIFICATION_TYPE": "U", "NORAD_CAT_ID": 28874, "ELEMENT_SET_NO": 999, "REV_AT_EPOCH": 14802, "BSTAR": 0, "MEAN_MOTION_DOT": -5e-07, "MEAN_MOTION_DDOT": 0}, "tle": {"line1": "1 28874U 05038A   25343.07842363 -.00000050  00000+0  00000+0 0  9999", "line2": "2 28874  55.0352 280.8483 0131749 293.4065 193.8993  2.00578550148027"}}, "geometry": {"type": "Point", "coordinates": [126.9077692971981, -32.2065554060974]}}, {"type": "Feature", "properties": {"norad_id": 29486, "name": "GPS BIIRM-2 (PRN 31)", "group": "gps-ops", "lat": 40.96490684538944, "lon": -59.14873957356333, "alt_km": 20099.444020398954, "timestamp": "2025-12-10T04:57:29.876772+00:00", "meta": {"OBJECT_NAME": "GPS BIIRM-2 (PRN 31)", "OBJECT_ID": "2006-042A", "EPOCH": "2025-12-09T13:14:35.270304", "MEAN_MOTION": 2.00554233, "ECCENTRICITY": 0.0107363, "INCLINATION": 54.6937, "RA_OF_ASC_NODE": 158.8672, "ARG_OF_PERICENTER": 51.886, "MEAN_ANOMALY": 320.6455, "EPHEMERIS_TYPE": 0, "CLASSIFICATION_TYPE": "U", "NORAD_CAT_ID": 29486, "ELEMENT_SET_NO": 999, "REV_AT_EPOCH": 14059, "BSTAR": 0, "MEAN_MOTION_DOT": 6.7e-07, "MEAN_MOTION_DDOT": 0}, "tle": {"line1": "1 29486U 06042A   25343.55179711  .00000067  00000+0  00000+0 0  9995", "line2": "2 29486  54.6937 158.8672 0107363  51.8860 320.6455  2.00554233140598"}}, "geometry": {"type": "Point", "coordinates": [-59.14873957356333, 40.96490684538944]}}, {"type": "Feature", "properties": {"norad_id": 29601, "name": "GPS BIIRM-3 (PRN 12)", "group": "gps-ops", "lat": -3.0854070506340077, "lon": 43.672806169848876, "alt_km": 20205.815769010253, "timestamp": "2025-12-10T04:57:29.876784+00:00", "meta": {"OBJECT_NAME": "GPS BIIRM-3 (PRN 12)", "OBJECT_ID": "2006-052A", "EPOCH": "2025-12-08T22:59:17.672352", "MEAN_MOTION": 2.00573222, "ECCENTRICITY": 0.0087721, "INCLINATION": 54.9712, "RA_OF_ASC_NODE": 221.5484, "ARG_OF_PERICENTER": 87.3994, "MEAN_ANOMALY": 273.6864, "EPHEMERIS_TYPE": 0, "CLASSIFICATION_TYPE": "U", "NORAD_CAT_ID": 29601, "ELEMENT_SET_NO": 999, "REV_AT_EPOCH": 13959, "BSTAR": 0, "MEAN_MOTION_DOT": 1e-07, "MEAN_MOTION_DDOT": 0}, "tle": {"line1": "1 29601U 06052A   25342.95784343  .00000010  00000+0  00000+0 0  9999", "line2": "2 29601  54.9712 221.5484 0087721  87.3994 273.6864  2.00573222139595"}}, "geometry": {"type": "Point", "coordinates": [43.672806169848876, -3.0854070506340077]}}, {"type": "Feature", "properties": {"norad_id": 32260, "name": "GPS BIIRM-4 (PRN 15)", "group": "gps-ops", "lat": -30.386818005487882, "lon": 62.61484950820116, "alt_km": 20423.990724958272, "timestamp": "2025-12-10T04:57:29.876797+00:00", "meta": {"OBJECT_NAME": "GPS BIIRM-4 (PRN 15)", "OBJECT_ID": "2007-047A", "EPOCH": "2025-12-09T06:19:25.464288", "MEAN_MOTION": 2.00564591, "ECCENTRICITY": 0.016427, "INCLINATION": 53.953, "RA_OF_ASC_NODE": 87.9021, "ARG_OF_PERICENTER": 85.2089, "MEAN_ANOMALY": 276.6577, "EPHEMERIS_TYPE": 0, "CLASSIFICATION_TYPE": "U", "NORAD_CAT_ID": 32260, "ELEMENT_SET_NO": 999, "REV_AT_EPOCH": 13300, "BSTAR": 0, "MEAN_MOTION_DOT": -1.5e-07, "MEAN_MOTION_DDOT": 0}, "tle": {"line1": "1 32260U 07047A   25343.26348917 -.00000015  00000+0  00000+0 0  9993", "line2": "2 32260  53.9530  87.9021 0164270  85.2089 276.6577  2.00564591133008"}}, "geometry": {"type": "Point", "coordinates": [62.61484950820116, -30.386818005487882]}}]}